{
  "norad_id": 51123,
  "name": "STARLINK-3392",
  "history": [
    {
      "epoch": "2026-03-28T15:53:26.350656",
      "apogee_km": 540.6435344944775,
      "perigee_km": 538.8645296366722,
      "latitude_deg": -49.97852063021157,
      "longitude_deg": 75.86261184001341,
      "semi_major_axis_km": 6917.891032065575,
      "eccentricity": 0.00012858,
      "inclination_deg": 53.2178,
      "raan_deg": 203.9502,
      "arg_perigee_deg": 90.0365,
      "mean_anomaly_deg": 270.0775,
      "mean_motion_rev_day": 15.08836518
    }
  ]
}