{"fetched_at":"2026-03-29T16:36:15Z","count":15609,"tles":[{"name":"STARLINK-3392","line1":"1 51123U 22005V   26087.66211054  .00000024  00000+0  19590-4 0  9992","line2":"2 51123  53.2178 203.9502 0001285  90.0365 270.0775 15.08836518231740","category":"Starlink"}]}